[{"OBJECT_NAME":"TIANQI-15","OBJECT_ID":"2021-065B","EPOCH":"2026-03-09T19:28:45.472224","MEAN_MOTION":15.09508085,"ECCENTRICITY":0.00070671,"INCLINATION":34.9979,"RA_OF_ASC_NODE":108.242,"ARG_OF_PERICENTER":250.7766,"MEAN_ANOMALY":109.218,"EPHEMERIS_TYPE":0,"CLASSIFICATION_TYPE":"U","NORAD_CAT_ID":49027,"ELEMENT_SET_NO":999,"REV_AT_EPOCH":25424,"BSTAR":0.00041179088,"MEAN_MOTION_DOT":6.722e-5,"MEAN_MOTION_DDOT":0},{"OBJECT_NAME":"STARLINK-5051","OBJECT_ID":"2022-119AG","EPOCH":"2026-03-09T21:45:19.808064","MEAN_MOTION":15.08832443,"ECCENTRICITY":0.00010888,"INCLINATION":53.217,"RA_OF_ASC_NODE":292.8016,"ARG_OF_PERICENTER":82.5605,"MEAN_ANOMALY":277.5511,"EPHEMERIS_TYPE":0,"CLASSIFICATION_TYPE":"U","NORAD_CAT_ID":53916,"ELEMENT_SET_NO":999,"REV_AT_EPOCH":19215,"BSTAR":0.00015012341,"MEAN_MOTION_DOT":2.102e-5,"MEAN_MOTION_DDOT":0}]
